     2.100          NAVIGATION                              RINEX VERSION / TYPE
fic2rin                                 10/28/2008 02:06:42 PGM / RUN BY / DATE
                                                            END OF HEADER
27 08 10 27 12  0  0.0  .228244345635D-03  .284217094304D-11  .000000000000D+00
     .400000000000D+02  .340625000000D+01  .412410035676D-08  .167986250623D+01
    -.502914190292D-07  .212947070831D-01  .112429261208D-04  .515371883011D+04
     .129600000000D+06  .372529029846D-08  .163379150449D+00 -.603497028351D-06
     .971831670999D+00  .171000000000D+03 -.167918995744D+01 -.770067790700D-08
     .553237330270D-09  .100000000000D+01  .150300000000D+04  .000000000000D+00
     .240000000000D+01  .000000000000D+00 -.419095158577D-08  .400000000000D+02
     .122406000000D+06  .400000000000D+01
28 08 10 27 12  0  0.0 -.233254395425D-04 -.227373675443D-12  .000000000000D+00
     .450000000000D+02  .396875000000D+01  .507806866480D-08  .494005972897D+00
     .311061739922D-06  .141036099521D-01  .439397990704D-05  .515362889481D+04
     .129600000000D+06 -.894069671631D-07  .129840441537D+01  .856816768646D-07
     .964395182953D+00  .298718750000D+03 -.208802897835D+01 -.864536011395D-08
    -.960754304987D-10  .100000000000D+01  .150300000000D+04  .000000000000D+00
     .240000000000D+01  .000000000000D+00 -.102445483208D-07  .450000000000D+02
     .122406000000D+06  .400000000000D+01
29 08 10 27 12  0  0.0 -.327331945300D-04  .159161572810D-11  .000000000000D+00
     .640000000000D+02 -.216562500000D+02  .445375694543D-08  .267733075010D+01
    -.121258199215D-05  .333122571465D-02  .106580555439D-04  .515381236839D+04
     .129600000000D+06  .856816768646D-07  .234005239024D+01 -.745058059692D-08
     .959838114139D+00  .171375000000D+03 -.134036754607D+01 -.786675625340D-08
    -.628954769919D-09  .100000000000D+01  .150300000000D+04  .000000000000D+00
     .240000000000D+01  .000000000000D+00 -.884756445885D-08  .640000000000D+02
     .122406000000D+06  .400000000000D+01
30 08 10 27 12  0  0.0  .104413367808D-03  .216004991671D-11  .000000000000D+00
     .790000000000D+02  .775000000000D+01  .543308345259D-08  .912447065826D+00
     .324100255966D-06  .111778150313D-01  .444613397121D-05  .515366736603D+04
     .129600000000D+06 -.203028321266D-06  .122897631582D+01  .000000000000D+00
     .949571692993D+00  .288937500000D+03  .141120122754D+01 -.870679124423D-08
     .410731394325D-10  .100000000000D+01  .150300000000D+04  .000000000000D+00
     .485000000000D+01  .000000000000D+00 -.791624188423D-08  .790000000000D+02
     .122406000000D+06  .400000000000D+01
31 08 10 27 12  0  0.0 -.349474139512D-04 -.227373675443D-11  .000000000000D+00
     .600000000000D+01  .137187500000D+02  .422089010273D-08 -.288344768002D+01
     .840052962303D-06  .680789246690D-02  .112112611532D-04  .515356773567D+04
     .129600000000D+06  .856816768646D-07  .219770581344D+00  .124797224998D-06
     .970224788614D+00  .166125000000D+03 -.123825814043D+01 -.767817696975D-08
     .591453207829D-09  .100000000000D+01  .150300000000D+04  .000000000000D+00
     .240000000000D+01  .000000000000D+00 -.130385160446D-07  .600000000000D+01
     .122406000000D+06  .400000000000D+01
32 08 10 27 12  0  0.0  .315573532134D-03 -.795807864051D-12  .000000000000D+00
     .310000000000D+02  .415625000000D+01  .462054960729D-08 -.194982511199D+01
     .562518835068D-06  .139540674863D-01  .122934579849D-05  .515372471809D+04
     .129600000000D+06  .447034835815D-07 -.178642973339D+01  .368803739548D-06
     .966701287515D+00  .357875000000D+03 -.126411476837D+01 -.836856286995D-08
     .214294640518D-10  .100000000000D+01  .150300000000D+04  .000000000000D+00
     .240000000000D+01  .000000000000D+00 -.325962901115D-08  .310000000000D+02
     .122406000000D+06  .400000000000D+01
16 08 10 27 11 59 44.0  .989981926978D-04 -.227373675443D-11  .000000000000D+00
     .470000000000D+02  .281250000000D+01  .496413534759D-08  .118790730017D+01
     .204890966415D-06  .473518262152D-02  .413507223129D-05  .515368504906D+04
     .129584000000D+06  .745058059692D-07  .128992815537D+01  .279396772385D-07
     .966227637065D+00  .298406250000D+03 -.384839999045D+00 -.828927385296D-08
    -.375015620906D-10  .100000000000D+01  .150300000000D+04  .000000000000D+00
     .240000000000D+01  .000000000000D+00 -.977888703346D-08  .470000000000D+02
     .122706000000D+06  .400000000000D+01
30 08 10 27 11 59 44.0  .104412902147D-03  .216004991671D-11  .000000000000D+00
     .220000000000D+02  .775000000000D+01  .543308345259D-08  .910113868021D+00
     .324100255966D-06  .111778143328D-01  .444613397121D-05  .515366737556D+04
     .129584000000D+06 -.203028321266D-06  .122897644163D+01  .000000000000D+00
     .949571681289D+00  .288937500000D+03  .141120061897D+01 -.870679124423D-08
     .410731394325D-10  .100000000000D+01  .150300000000D+04  .000000000000D+00
     .240000000000D+01  .000000000000D+00 -.791624188423D-08  .220000000000D+02
     .127206000000D+06  .400000000000D+01
26 08 10 27 11 59 44.0  .797677785158D-05  .477484718431D-11  .000000000000D+00
     .700000000000D+01 -.922812500000D+02  .364158025786D-08 -.166575463629D+01
    -.486336648464D-05  .192369746510D-01  .924244523048D-05  .515363339424D+04
     .129584000000D+06  .378116965294D-06 -.774210830932D+00 -.726431608200D-07
     .993368750961D+00  .210687500000D+03  .957669939346D+00 -.744352433838D-08
    -.150006248362D-09  .100000000000D+01  .150300000000D+04  .000000000000D+00
     .240000000000D+01  .000000000000D+00 -.605359673500D-08  .700000000000D+01
     .127476000000D+06  .400000000000D+01
10 08 10 27 11 59 44.0 -.652065500617D-05 -.454747350886D-12  .000000000000D+00
     .340000000000D+02 -.109375000000D+01  .484020161383D-08 -.326918595757D-01
     .633299350739D-07  .812109606341D-02  .130943953991D-05  .515372187996D+04
     .129584000000D+06  .745058059692D-07 -.184649129512D+01  .633299350739D-07
     .961140106841D+00  .351750000000D+03  .558059201703D+00 -.865214611090D-08
     .185722021782D-10  .100000000000D+01  .150300000000D+04  .000000000000D+00
     .240000000000D+01  .000000000000D+00 -.232830643654D-08  .340000000000D+02
     .129456000000D+06  .400000000000D+01
10 08 10 27 13 59 44.0 -.652391463518D-05 -.454747350886D-12  .000000000000D+00
     .450000000000D+02  .114375000000D+02  .478734226916D-08  .101738911096D+01
     .774860382080D-06  .812273856718D-02  .158324837685D-05  .515372516632D+04
     .136784000000D+06 -.409781932831D-07 -.184655287666D+01  .726431608200D-07
     .961140115618D+00  .348968750000D+03  .558130103491D+00 -.859214361156D-08
    -.610739725475D-10  .100000000000D+01  .150300000000D+04  .000000000000D+00
     .240000000000D+01  .000000000000D+00 -.232830643654D-08  .450000000000D+02
     .129606000000D+06  .400000000000D+01
26 08 10 27 13 59 44.0  .801123678684D-05  .477484718431D-11  .000000000000D+00
     .800000000000D+01 -.944375000000D+02  .371694053978D-08 -.615446291717D+00
    -.474974513054D-05  .192382821115D-01  .883452594280D-05  .515363808060D+04
     .136784000000D+06 -.130385160446D-07 -.774265573326D+00  .316649675369D-06
     .993364823026D+00  .229062500000D+03  .957559687987D+00 -.798211820155D-08
    -.259653672761D-09  .100000000000D+01  .150300000000D+04  .000000000000D+00
     .240000000000D+01  .000000000000D+00 -.605359673500D-08  .800000000000D+01
     .129606000000D+06  .400000000000D+01
30 08 10 27 13 59 44.0  .104428734630D-03  .216004991671D-11  .000000000000D+00
     .230000000000D+02  .703125000000D+01  .525879047830D-08  .196025214398D+01
     .163912773132D-06  .111777891871D-01  .406056642532D-05  .515366847229D+04
     .136784000000D+06  .726431608200D-07  .122891437148D+01 -.240281224251D-06
     .949573831779D+00  .293187500000D+03  .141125324745D+01 -.834891919457D-08
     .116433421348D-09  .100000000000D+01  .150300000000D+04  .000000000000D+00
     .240000000000D+01  .000000000000D+00 -.791624188423D-08  .230000000000D+02
     .129606000000D+06  .400000000000D+01
 1 08 10 27 14  0  0.0 -.161831267178D-04 -.422915036324D-10  .000000000000D+00
     .340000000000D+02 -.310625000000D+02  .507949729574D-08 -.260797602174D+01
    -.166334211826D-05  .983334938064D-02  .923126935959D-05  .515380394554D+04
     .136800000000D+06  .117346644402D-06  .224946852911D+01  .143423676491D-06
     .935250294072D+00  .182562500000D+03 -.150736356982D+01 -.808140805165D-08
    -.525021869268D-09  .100000000000D+01  .150300000000D+04  .000000000000D+00
     .240000000000D+01  .630000000000D+02 -.232830643654D-08  .340000000000D+02
     .129606000000D+06  .400000000000D+01
 2 08 10 27 14  0  0.0  .177258625627D-03 -.261479726760D-11  .000000000000D+00
     .410000000000D+02  .923125000000D+02  .478877090010D-08  .591158246971D-01
     .472925603390D-05  .878843816463D-02  .941567122936D-05  .515379987717D+04
     .136800000000D+06  .111758708954D-06 -.292968264561D+01 -.108033418655D-06
     .942955278787D+00  .194000000000D+03  .265627121195D+01 -.831463205208D-08
     .116433421348D-09  .100000000000D+01  .150300000000D+04  .000000000000D+00
     .240000000000D+01  .000000000000D+00 -.172294676304D-07  .410000000000D+02
     .129606000000D+06  .400000000000D+01
 3 08 10 27 14  0  0.0  .302784610540D-03  .534328137292D-11  .000000000000D+00
     .171000000000D+03 -.400000000000D+02  .553344477590D-08 -.246117661343D+00
    -.201165676117D-05  .113919374999D-01  .886805355549D-05  .515370729446D+04
     .136800000000D+06  .149011611938D-07  .220858672747D+01  .119209289551D-06
     .925965436829D+00  .188187500000D+03  .867441542434D+00 -.866393231613D-08
    -.648955603034D-09  .100000000000D+01  .150300000000D+04  .000000000000D+00
     .340000000000D+01  .000000000000D+00 -.419095158577D-08  .171000000000D+03
     .129606000000D+06  .400000000000D+01
